{
    "links": {
        "self": "http://www.neowsapp.com/rest/v1/neo/3843507?api_key=iIulBulltgU6a56xZRHN4H3l9WmuAYTsLGpBGhQ2"
    },
    "id": "3843507",
    "neo_reference_id": "3843507",
    "name": "(2019 PF1)",
    "designation": "2019 PF1",
    "nasa_jpl_url": "http://ssd.jpl.nasa.gov/sbdb.cgi?sstr=3843507",
    "absolute_magnitude_h": 24.3,
    "estimated_diameter": {
        "kilometers": {
            "estimated_diameter_min": 0.0366906138,
            "estimated_diameter_max": 0.0820427065
        },
        "meters": {
            "estimated_diameter_min": 36.6906137531,
            "estimated_diameter_max": 82.0427064882
        },
        "miles": {
            "estimated_diameter_min": 0.0227984834,
            "estimated_diameter_max": 0.0509789586
        },
        "feet": {
            "estimated_diameter_min": 120.3760332259,
            "estimated_diameter_max": 269.1689931548
        }
    },
    "is_potentially_hazardous_asteroid": false,
    "close_approach_data": [
        {
            "close_approach_date": "2019-07-11",
            "close_approach_date_full": "2019-Jul-11 14:28",
            "epoch_date_close_approach": 1562855280000,
            "relative_velocity": {
                "kilometers_per_second": "8.1380366736",
                "kilometers_per_hour": "29296.9320249842",
                "miles_per_hour": "18203.9742351909"
            },
            "miss_distance": {
                "astronomical": "0.0676048793",
                "lunar": "26.2982980477",
                "kilometers": "10113545.944887091",
                "miles": "6284266.0448642158"
            },
            "orbiting_body": "Earth"
        }
    ],
    "orbital_data": {
        "orbit_id": "2",
        "orbit_determination_date": "2020-01-11 04:51:56",
        "first_observation_date": "2019-08-05",
        "last_observation_date": "2019-08-09",
        "data_arc_in_days": 4,
        "observations_used": 13,
        "orbit_uncertainty": "9",
        "minimum_orbit_intersection": ".0558606",
        "jupiter_tisserand_invariant": "3.481",
        "epoch_osculation": "2458702.5",
        "eccentricity": ".5251312938448746",
        "semi_major_axis": "2.175446921253427",
        "inclination": "8.225326734463362",
        "ascending_node_longitude": "131.6871666863582",
        "orbital_period": "1171.982600155656",
        "perihelion_distance": "1.033051664804766",
        "perihelion_argument": "144.1037228974386",
        "aphelion_distance": "3.317842177702089",
        "perihelion_time": "2458663.567941364217",
        "mean_anomaly": "11.95883036746485",
        "mean_motion": ".3071717958544665",
        "equinox": "J2000",
        "orbit_class": {
            "orbit_class_type": "AMO",
            "orbit_class_description": "Near-Earth asteroid orbits similar to that of 1221 Amor",
            "orbit_class_range": "1.017 AU < q (perihelion) < 1.3 AU"
        }
    },
    "is_sentry_object": false
}